[{"OBJECT_NAME":"NOAA 17","OBJECT_ID":"2002-032A","EPOCH":"2026-03-30T12:17:33.406080","MEAN_MOTION":14.26201253,"ECCENTRICITY":0.0010911,"INCLINATION":98.8577,"RA_OF_ASC_NODE":54.367,"ARG_OF_PERICENTER":215.7202,"MEAN_ANOMALY":144.3248,"EPHEMERIS_TYPE":0,"CLASSIFICATION_TYPE":"U","NORAD_CAT_ID":27453,"ELEMENT_SET_NO":999,"REV_AT_EPOCH":23577,"BSTAR":0.00013508,"MEAN_MOTION_DOT":2.78e-6,"MEAN_MOTION_DDOT":0},{"OBJECT_NAME":"NOAA 18","OBJECT_ID":"2005-018A","EPOCH":"2026-03-30T13:29:19.525056","MEAN_MOTION":14.13715016,"ECCENTRICITY":0.00144761,"INCLINATION":98.8129,"RA_OF_ASC_NODE":170.3742,"ARG_OF_PERICENTER":18.9799,"MEAN_ANOMALY":341.1911,"EPHEMERIS_TYPE":0,"CLASSIFICATION_TYPE":"U","NORAD_CAT_ID":28654,"ELEMENT_SET_NO":999,"REV_AT_EPOCH":7520,"BSTAR":6.0938206e-5,"MEAN_MOTION_DOT":7.1e-7,"MEAN_MOTION_DDOT":0},{"OBJECT_NAME":"NOAA 19","OBJECT_ID":"2009-005A","EPOCH":"2026-03-30T14:49:31.158336","MEAN_MOTION":14.13460907,"ECCENTRICITY":0.00127663,"INCLINATION":98.9568,"RA_OF_ASC_NODE":160.4201,"ARG_OF_PERICENTER":250.7728,"MEAN_ANOMALY":109.2064,"EPHEMERIS_TYPE":0,"CLASSIFICATION_TYPE":"U","NORAD_CAT_ID":33591,"ELEMENT_SET_NO":999,"REV_AT_EPOCH":88338,"BSTAR":6.74848e-5,"MEAN_MOTION_DOT":8.2e-7,"MEAN_MOTION_DDOT":0},{"OBJECT_NAME":"SUOMI NPP","OBJECT_ID":"2011-061A","EPOCH":"2026-03-30T12:52:44.436288","MEAN_MOTION":14.19499093,"ECCENTRICITY":0.00017647,"INCLINATION":98.7896,"RA_OF_ASC_NODE":30.9762,"ARG_OF_PERICENTER":155.0194,"MEAN_ANOMALY":205.1067,"EPHEMERIS_TYPE":0,"CLASSIFICATION_TYPE":"U","NORAD_CAT_ID":37849,"ELEMENT_SET_NO":999,"REV_AT_EPOCH":74728,"BSTAR":6.7793954e-5,"MEAN_MOTION_DOT":9.9e-7,"MEAN_MOTION_DDOT":0},{"OBJECT_NAME":"NOAA 20 (JPSS-1)","OBJECT_ID":"2017-073A","EPOCH":"2026-03-30T11:31:56.478720","MEAN_MOTION":14.19541441,"ECCENTRICITY":0.00019297,"INCLINATION":98.7716,"RA_OF_ASC_NODE":29.6639,"ARG_OF_PERICENTER":109.9883,"MEAN_ANOMALY":250.1501,"EPHEMERIS_TYPE":0,"CLASSIFICATION_TYPE":"U","NORAD_CAT_ID":43013,"ELEMENT_SET_NO":999,"REV_AT_EPOCH":43330,"BSTAR":5.8859625e-5,"MEAN_MOTION_DOT":8.0e-7,"MEAN_MOTION_DDOT":0},{"OBJECT_NAME":"NOAA 21 (JPSS-2)","OBJECT_ID":"2022-150A","EPOCH":"2026-03-30T14:03:04.855104","MEAN_MOTION":14.19557692,"ECCENTRICITY":0.00027293,"INCLINATION":98.7579,"RA_OF_ASC_NODE":29.6149,"ARG_OF_PERICENTER":70.2373,"MEAN_ANOMALY":289.9097,"EPHEMERIS_TYPE":0,"CLASSIFICATION_TYPE":"U","NORAD_CAT_ID":54234,"ELEMENT_SET_NO":999,"REV_AT_EPOCH":17539,"BSTAR":7.4404091e-5,"MEAN_MOTION_DOT":1.13e-6,"MEAN_MOTION_DDOT":0}]
