{"fetched_at":"2026-03-31T05:47:18Z","count":15575,"tles":[{"name":"NOAA 19","line1":"1 33591U 09005A   26089.61772174  .00000082  00000+0  67485-4 0  9998","line2":"2 33591  98.9568 160.4201 0012766 250.7728 109.2064 14.13460907883382","category":"Weather"},{"name":"NOAA 18","line1":"1 28654U 05018A   26089.56203154  .00000071  00000+0  60938-4 0  9997","line2":"2 28654  98.8129 170.3742 0014476  18.9799 341.1911 14.13715016 75206","category":"Weather"},{"name":"NOAA 20 (JPSS-1)","line1":"1 43013U 17073A   26089.48051480  .00000080  00000+0  58860-4 0  9992","line2":"2 43013  98.7716  29.6639 0001929 109.9883 250.1501 14.19541441433306","category":"Weather"},{"name":"NOAA 21 (JPSS-2)","line1":"1 54234U 22150A   26089.58547286  .00000113  00000+0  74404-4 0  9995","line2":"2 54234  98.7579  29.6149 0002729  70.2373 289.9097 14.19557692175396","category":"Weather"},{"name":"SUOMI NPP","line1":"1 37849U 11061A   26089.53662542  .00000099  00000+0  67794-4 0  9992","line2":"2 37849  98.7896  30.9762 0001764 155.0194 205.1067 14.19499093747288","category":"Weather"},{"name":"NOAA 17","line1":"1 27453U 02032A   26089.51219220  .00000278  00000+0  13508-3 0  9991","line2":"2 27453  98.8577  54.3670 0010911 215.7202 144.3248 14.26201253235779","category":"Weather"}]}